     2.10           G: GLONASS NAV DATA                     RINEX VERSION / TYPE
teqc  2015Jun23                         20220609 01:25:43UTCPGM / RUN BY / DATE
Linux 2.4.21-27.ELsmp|Opteron|gcc -static|Linux x86_64|=+   COMMENT
  2022     5    29    4.656612873077D-10                    CORR TO SYSTEM TIME
                                                            END OF HEADER
18 22  5 30 12 45  0.0 1.185918226838D-04 9.094947017729D-13 4.500000000000D+04
   -1.187819921875D+04 7.695569992065D-01-4.656612873077D-09 0.000000000000D+00
    1.356042236328D+04-2.359370231628D+00-0.000000000000D+00-3.000000000000D+00
   -1.806463574219D+04-2.271164894104D+00-0.000000000000D+00 0.000000000000D+00
20 22  5 30 12 45  0.0-7.159542292356D-05-0.000000000000D+00 4.500000000000D+04
    9.898286132812D+02-3.803520202637D-01 0.000000000000D+00 0.000000000000D+00
    2.060283496094D+04 2.035610198975D+00-1.862645149231D-09 2.000000000000D+00
    1.503822900391D+04-2.759731292725D+00-9.313225746155D-10 0.000000000000D+00
19 22  5 30 13 15  0.0-1.908913254738D-04-9.094947017729D-13 4.680000000000D+04
   -8.059150878906D+03 4.430541992188D-01-3.725290298462D-09 0.000000000000D+00
    2.168906933594D+04-1.423015594482D+00-0.000000000000D+00 3.000000000000D+00
   -1.074414160156D+04-3.206914901733D+00-9.313225746155D-10 0.000000000000D+00
 6 22  5 30 13 15  0.0-5.119293928146D-05-1.818989403546D-12 4.680000000000D+04
    1.502493652344D+04-1.217233657837D+00 1.862645149231D-09 0.000000000000D+00
    1.713613964844D+04-1.000858306885D+00-2.793967723846D-09-4.000000000000D+00
    1.147182519531D+04 3.086186408997D+00 0.000000000000D+00 0.000000000000D+00
15 22  5 30 13 15  0.0 9.576510637999D-05-0.000000000000D+00 4.680000000000D+04
   -2.358614355469D+04 2.883796691895D-01-3.725290298462D-09 0.000000000000D+00
    9.551205078125D+03 3.765964508057D-02 9.313225746155D-10 0.000000000000D+00
    1.833195312500D+03 3.553230285645D+00-2.793967723846D-09 0.000000000000D+00
18 22  5 30 13 15  0.0 1.185946166515D-04 9.094947017729D-13 4.680000000000D+04
   -1.075151611328D+04 4.522428512573D-01-3.725290298462D-09 0.000000000000D+00
    8.788672851562D+03-2.901929855347D+00 9.313225746155D-10-3.000000000000D+00
   -2.140250537109D+04-1.413405418396D+00-0.000000000000D+00 0.000000000000D+00
20 22  5 30 13 15  0.0-7.159635424614D-05-0.000000000000D+00 4.680000000000D+04
    7.097041015625D+02 3.971481323242D-02-9.313225746155D-10 0.000000000000D+00
    2.366410302734D+04 1.330253601074D+00-1.862645149231D-09 2.000000000000D+00
    9.554690917969D+03-3.293588638306D+00-9.313225746155D-10 0.000000000000D+00
 5 22  5 30 13 15  0.0 9.376369416714D-05 9.094947017729D-13 4.689000000000D+04
   -3.210012695312D+03-2.489362716675D+00 9.313225746155D-10 0.000000000000D+00
    1.091963085938D+04-1.888650894165D+00-9.313225746155D-10 1.000000000000D+00
    2.284571582031D+04 5.514526367188D-01-1.862645149231D-09 0.000000000000D+00
 9 22  5 30 13 15  0.0 5.781929939985D-05 1.818989403546D-12 4.770000000000D+04
    3.231187500000D+03-2.828388214111D+00-2.793967723846D-09 0.000000000000D+00
    1.092100195312D+04 1.329721450806D+00-0.000000000000D+00-2.000000000000D+00
   -2.280927636719D+04 2.286825180054D-01 9.313225746155D-10 0.000000000000D+00
20 22  5 30 13 45  0.0-7.159728556871D-05-0.000000000000D+00 4.860000000000D+04
    1.005887695312D+03 2.495908737183D-01-1.862645149231D-09 0.000000000000D+00
    2.529323144531D+04 4.615745544434D-01-9.313225746155D-10 2.000000000000D+00
    3.334182617188D+03-3.573313713074D+00-9.313225746155D-10 0.000000000000D+00
 6 22  5 30 13 45  0.0-5.119666457176D-05-1.818989403546D-12 4.860000000000D+04
    1.215327343750D+04-1.962891578674D+00 9.313225746155D-10 0.000000000000D+00
    1.518256933594D+04-1.126098632812D+00-2.793967723846D-09-4.000000000000D+00
    1.651201660156D+04 2.477661132812D+00-0.000000000000D+00 0.000000000000D+00
 9 22  5 30 13 45  0.0 5.782302469015D-05 1.818989403546D-12 4.860000000000D+04
   -1.567304687500D+03-2.463612556458D+00-3.725290298462D-09 0.000000000000D+00
    1.360183740234D+04 1.618015289307D+00 0.000000000000D+00-2.000000000000D+00
   -2.152037988281D+04 1.193895339966D+00 0.000000000000D+00 0.000000000000D+00
15 22  5 30 13 45  0.0 9.576510637999D-05-0.000000000000D+00 4.860000000000D+04
   -2.238824658203D+04 1.014170646667D+00-1.862645149231D-09 0.000000000000D+00
    9.202615234375D+03-4.548387527466D-01 9.313225746155D-10 0.000000000000D+00
    8.075593261719D+03 3.337779998779D+00-2.793967723846D-09 0.000000000000D+00
19 22  5 30 13 45  0.0-1.908941194415D-04-9.094947017729D-13 4.860000000000D+04
   -7.425184082031D+03 2.239465713501D-01-3.725290298462D-09 0.000000000000D+00
    1.840866699219D+04-2.193788528442D+00 9.313225746155D-10 3.000000000000D+00
   -1.602680712891D+04-2.624639511108D+00-0.000000000000D+00 0.000000000000D+00
21 22  5 30 13 45  0.0-3.053983673453D-04-3.637978807092D-12 4.929000000000D+04
    9.068901855469D+03 1.563873291016D-01 9.313225746155D-10 0.000000000000D+00
    1.327112939453D+04 2.714683532715D+00-2.793967723846D-09 4.000000000000D+00
    1.979087060547D+04-1.893311500549D+00-9.313225746155D-10 0.000000000000D+00
20 22  5 30 14 15  0.0-7.159728556871D-05-0.000000000000D+00 5.040000000000D+04
    1.456661621094D+03 2.084169387817D-01-2.793967723846D-09 0.000000000000D+00
    2.529556152344D+04-4.571943283081D-01-0.000000000000D+00 2.000000000000D+00
   -3.143461914062D+03-3.577454566956D+00-9.313225746155D-10 0.000000000000D+00
 6 22  5 30 14 15  0.0-5.120038986206D-05-1.818989403546D-12 5.040000000000D+04
    8.030020019531D+03-2.589907646179D+00 9.313225746155D-10 0.000000000000D+00
    1.323263085938D+04-1.002048492432D+00-1.862645149231D-09-4.000000000000D+00
    2.027612060547D+04 1.677495956421D+00-9.313225746155D-10 0.000000000000D+00
 9 22  5 30 14 15  0.0 5.782674998045D-05 1.818989403546D-12 5.040000000000D+04
   -5.519414550781D+03-1.902442932129D+00-3.725290298462D-09 0.000000000000D+00
    1.661342041016D+04 1.686793327332D+00 9.313225746155D-10-2.000000000000D+00
   -1.856754443359D+04 2.065545082092D+00-0.000000000000D+00 0.000000000000D+00
15 22  5 30 14 15  0.0 9.576417505741D-05-0.000000000000D+00 5.040000000000D+04
   -2.006184765625D+04 1.529981613159D+00-9.313225746155D-10 0.000000000000D+00
    7.831551269531D+03-1.083476066589D+00 9.313225746155D-10 0.000000000000D+00
    1.369422607422D+04 2.864702224731D+00-2.793967723846D-09 0.000000000000D+00
19 22  5 30 14 15  0.0-1.908959820867D-04-9.094947017729D-13 5.040000000000D+04
   -7.366846191406D+03-1.838216781616D-01-3.725290298462D-09 0.000000000000D+00
    1.392161718750D+04-2.748694419861D+00 1.862645149231D-09 3.000000000000D+00
   -2.007093017578D+04-1.839701652527D+00-0.000000000000D+00 0.000000000000D+00
21 22  5 30 14 15  0.0-3.054030239582D-04-3.637978807092D-12 5.040000000000D+04
    9.668514648438D+03 4.796047210693D-01-0.000000000000D+00 0.000000000000D+00
    1.764197900391D+04 2.102985382080D+00-2.793967723846D-09 4.000000000000D+00
    1.566084130859D+04-2.665802955627D+00-9.313225746155D-10 0.000000000000D+00
20 22  5 30 14 45  0.0-7.159821689129D-05-0.000000000000D+00 5.220000000000D+04
    1.607767578125D+03-7.858657836914D-02-3.725290298462D-09 0.000000000000D+00
    2.369007421875D+04-1.305118560791D+00 9.313225746155D-10 2.000000000000D+00
   -9.378679199219D+03-3.305682182312D+00-9.313225746155D-10 0.000000000000D+00
 9 22  5 30 14 45  0.0 5.783047527075D-05 2.728484105319D-12 5.220000000000D+04
   -8.356852539062D+03-1.242915153503D+00-3.725290298462D-09 0.000000000000D+00
    1.951603173828D+04 1.493271827698D+00 1.862645149231D-09-2.000000000000D+00
   -1.418098242188D+04 2.776679992676D+00-9.313225746155D-10 0.000000000000D+00
19 22  5 30 14 45  0.0-1.908987760544D-04-9.094947017729D-13 5.220000000000D+04
   -8.145850585938D+03-6.891260147095D-01-2.793967723846D-09 0.000000000000D+00
    8.686548339844D+03-3.016460418701D+00 2.793967723846D-09 3.000000000000D+00
   -2.256433007812D+04-9.127931594849D-01-0.000000000000D+00 0.000000000000D+00
21 22  5 30 14 45  0.0-3.054086118937D-04-3.637978807092D-12 5.220000000000D+04
    1.066561035156D+04 5.876913070679D-01-9.313225746155D-10 0.000000000000D+00
    2.073042773438D+04 1.306463241577D+00-1.862645149231D-09 4.000000000000D+00
    1.031808007812D+04-3.232000350952D+00-9.313225746155D-10 0.000000000000D+00
 6 22  5 30 14 45  0.0-5.120411515236D-05-1.818989403546D-12 5.241000000000D+04
    2.959665527344D+03-3.001213073730D+00 0.000000000000D+00 0.000000000000D+00
    1.169447070312D+04-6.803455352783D-01-1.862645149231D-09-4.000000000000D+00
    2.247285644531D+04 7.474298477173D-01-1.862645149231D-09 0.000000000000D+00
10 22  5 30 14 45  0.0-8.285790681839D-05-0.000000000000D+00 5.325000000000D+04
    4.769531250000D+03-2.081708908081D+00-2.793967723846D-09 0.000000000000D+00
    1.078910937500D+04 2.290838241577D+00 9.313225746155D-10-7.000000000000D+00
   -2.261484716797D+04 6.604909896851D-01 0.000000000000D+00 0.000000000000D+00
 9 22  5 30 15 15  0.0 5.783513188362D-05 2.728484105319D-12 5.400000000000D+04
   -1.000063574219D+04-5.943698883057D-01-3.725290298462D-09 0.000000000000D+00
    2.183113916016D+04 1.037801742554D+00 2.793967723846D-09-2.000000000000D+00
   -8.700732910156D+03 3.272983551025D+00-1.862645149231D-09 0.000000000000D+00
10 22  5 30 15 15  0.0-8.285883814096D-05-0.000000000000D+00 5.400000000000D+04
    1.464093750000D+03-1.570323944092D+00-3.725290298462D-09 0.000000000000D+00
    1.499747949219D+04 2.338890075684D+00 1.862645149231D-09-7.000000000000D+00
   -2.056671875000D+04 1.600622177124D+00-0.000000000000D+00 0.000000000000D+00
20 22  5 30 15 15  0.0-7.159914821386D-05-0.000000000000D+00 5.400000000000D+04
    1.055781250000D+03-5.609483718872D-01-3.725290298462D-09 0.000000000000D+00
    2.070583544922D+04-1.972857475281D+00 1.862645149231D-09 2.000000000000D+00
   -1.489046923828D+04-2.778820991516D+00-9.313225746155D-10 0.000000000000D+00
